<?xml version='1.0' encoding='utf-8'?>
<q:quakeml xmlns="http://quakeml.org/xmlns/bed/1.2" xmlns:q="http://quakeml.org/xmlns/quakeml/1.2">
  <eventParameters publicID="smi:local/038b9b97-5755-4647-82a1-8e29b81638fe">
    <event publicID="smi:local/84eaf50d-a7b8-4498-99b1-b49263b8e6d7">
      <preferredOriginID>smi:local/b07f4e59-a118-4221-9d5a-54c4e21bf11c</preferredOriginID>
      <description>
        <text>LR</text>
      </description>
      <origin publicID="smi:local/b07f4e59-a118-4221-9d5a-54c4e21bf11c">
        <time>
          <value>2020-03-18T13:09:31.530000Z</value>
        </time>
        <latitude>
          <value>40.751</value>
        </latitude>
        <longitude>
          <value>112.07833333333333</value>
        </longitude>
        <depth>
          <value>11900.0</value>
        </depth>
      </origin>
      <pick publicID="smi:local/e85fc4f3-f6d5-46ab-a286-3fb0a465fcbe">
        <time>
          <value>2020-03-18T13:09:35.910128Z</value>
          <uncertainty>0.024587154388427734</uncertainty>
        </time>
        <waveformID networkCode="UU" stationCode="FTT" locationCode="01" channelCode="ENE"></waveformID>
        <onset>impulsive</onset>
        <phaseHint>S</phaseHint>
        <evaluationMode>manual</evaluationMode>
      </pick>
      <pick publicID="smi:local/4f4e11bb-f3ae-4307-b3e1-ce329e3d0658">
        <time>
          <value>2020-03-18T13:09:34.130000Z</value>
          <uncertainty>0.0</uncertainty>
        </time>
        <waveformID networkCode="UU" stationCode="FTT" locationCode="01" channelCode="ENZ"></waveformID>
        <onset>impulsive</onset>
        <phaseHint>P</phaseHint>
      </pick>
      <pick publicID="smi:local/4923f166-51cd-4527-bcfd-88caa8173158">
        <time>
          <value>2020-03-18T13:09:33.950000Z</value>
          <uncertainty>0.0</uncertainty>
        </time>
        <waveformID networkCode="UU" stationCode="ICF" locationCode="01" channelCode="ENZ"></waveformID>
        <onset>impulsive</onset>
        <phaseHint>P</phaseHint>
      </pick>
      <pick publicID="smi:local/0363639d-11ce-4ac1-a6a7-a922ed28792d">
        <time>
          <value>2020-03-18T13:09:35.490000Z</value>
          <uncertainty>0.0</uncertainty>
        </time>
        <waveformID networkCode="UU" stationCode="LKC" locationCode="01" channelCode="ENN"></waveformID>
        <onset>impulsive</onset>
        <phaseHint>S</phaseHint>
        <evaluationMode>manual</evaluationMode>
      </pick>
      <pick publicID="smi:local/c9ede576-d5bf-40fa-a90a-46b73446b400">
        <time>
          <value>2020-03-18T13:09:33.840000Z</value>
          <uncertainty>0.0</uncertainty>
        </time>
        <waveformID networkCode="UU" stationCode="LKC" locationCode="01" channelCode="ENZ"></waveformID>
        <onset>impulsive</onset>
        <phaseHint>P</phaseHint>
        <evaluationMode>manual</evaluationMode>
      </pick>
      <pick publicID="smi:local/986f092f-5ef6-44ad-bec3-3b27206dde35">
        <time>
          <value>2020-03-18T13:09:34.470398Z</value>
          <uncertainty>0.011115312576293945</uncertainty>
        </time>
        <waveformID networkCode="UU" stationCode="NOQ" locationCode="01" channelCode="HHZ"></waveformID>
        <phaseHint>P</phaseHint>
        <polarity>negative</polarity>
        <evaluationMode>manual</evaluationMode>
      </pick>
      <pick publicID="smi:local/718b7c56-5cd5-4f33-a1d7-19cfa221cd9c">
        <time>
          <value>2020-03-18T13:09:34.751174Z</value>
          <uncertainty>0.021981477737426758</uncertainty>
        </time>
        <waveformID networkCode="UU" stationCode="SAIU" locationCode="01" channelCode="ENZ"></waveformID>
        <phaseHint>P</phaseHint>
        <evaluationMode>manual</evaluationMode>
      </pick>
      <pick publicID="smi:local/32183e4a-1322-42aa-990b-86dedf343608">
        <time>
          <value>2020-03-18T13:09:37.378357Z</value>
          <uncertainty>0.021243572235107422</uncertainty>
        </time>
        <waveformID networkCode="UU" stationCode="SAIU" locationCode="01" channelCode="ENN"></waveformID>
        <phaseHint>S</phaseHint>
        <evaluationMode>manual</evaluationMode>
      </pick>
      <amplitude publicID="smi:local/78c46870-e15f-4028-b103-b51ee27ac53f">
        <genericAmplitude/>
        <type>S</type>
        <timeWindow>
          <reference>2020-03-18T13:09:35.910128Z</reference>
          <begin>0.0</begin>
          <end>0.3688082695007324</end>
        </timeWindow>
        <pickID>smi:local/e85fc4f3-f6d5-46ab-a286-3fb0a465fcbe</pickID>
      </amplitude>
      <amplitude publicID="smi:local/602b09fc-2112-4d15-86c6-869d752d14c9">
        <genericAmplitude/>
        <type>S</type>
        <timeWindow>
          <reference>2020-03-18T13:09:35.490000Z</reference>
          <begin>0.0</begin>
          <end>0.4670753479003906</end>
        </timeWindow>
        <pickID>smi:local/0363639d-11ce-4ac1-a6a7-a922ed28792d</pickID>
      </amplitude>
      <amplitude publicID="smi:local/910e68ea-c120-4a04-aadf-06919070784f">
        <genericAmplitude/>
        <type>P</type>
        <timeWindow>
          <reference>2020-03-18T13:09:33.840000Z</reference>
          <begin>0.0</begin>
          <end>0.2099168300628662</end>
        </timeWindow>
        <pickID>smi:local/c9ede576-d5bf-40fa-a90a-46b73446b400</pickID>
      </amplitude>
      <amplitude publicID="smi:local/b896c715-0c24-4fe3-a61a-109e0c02bb66">
        <genericAmplitude/>
        <type>P</type>
        <timeWindow>
          <reference>2020-03-18T13:09:34.470398Z</reference>
          <begin>0.0</begin>
          <end>0.1794452667236328</end>
        </timeWindow>
        <pickID>smi:local/986f092f-5ef6-44ad-bec3-3b27206dde35</pickID>
      </amplitude>
      <amplitude publicID="smi:local/ed237645-d627-40eb-9fdb-848ab3d5a263">
        <genericAmplitude/>
        <type>P</type>
        <timeWindow>
          <reference>2020-03-18T13:09:34.751174Z</reference>
          <begin>0.0</begin>
          <end>0.17035627365112305</end>
        </timeWindow>
        <pickID>smi:local/718b7c56-5cd5-4f33-a1d7-19cfa221cd9c</pickID>
      </amplitude>
      <amplitude publicID="smi:local/92e34371-1de3-4215-a9e6-4923bf872b73">
        <genericAmplitude/>
        <type>S</type>
        <timeWindow>
          <reference>2020-03-18T13:09:37.378357Z</reference>
          <begin>0.0</begin>
          <end>0.283247709274292</end>
        </timeWindow>
        <pickID>smi:local/32183e4a-1322-42aa-990b-86dedf343608</pickID>
      </amplitude>
    </event>
    <event publicID="smi:local/dff82d98-d8e9-4f0b-912f-f7a6e29076e9">
      <preferredOriginID>smi:local/906a8e7a-90da-4228-ac5c-c9a918e3c5bc</preferredOriginID>
      <description>
        <text>LR</text>
      </description>
      <origin publicID="smi:local/906a8e7a-90da-4228-ac5c-c9a918e3c5bc">
        <time>
          <value>2020-03-18T13:10:08.210000Z</value>
        </time>
        <latitude>
          <value>40.747</value>
        </latitude>
        <longitude>
          <value>112.08133333333333</value>
        </longitude>
        <depth>
          <value>8530.0</value>
        </depth>
      </origin>
      <pick publicID="smi:local/ac4f850d-7ede-4ec1-acdf-9797775f1241">
        <time>
          <value>2020-03-18T13:10:12.051746Z</value>
          <uncertainty>0.03808331489562988</uncertainty>
        </time>
        <waveformID networkCode="UU" stationCode="FTT" locationCode="01" channelCode="ENN"></waveformID>
        <onset>impulsive</onset>
        <phaseHint>S</phaseHint>
        <evaluationMode>manual</evaluationMode>
      </pick>
      <pick publicID="smi:local/d76fe420-1f73-4860-8e29-e6f4c49dbff5">
        <time>
          <value>2020-03-18T13:10:10.227576Z</value>
          <uncertainty>0.02923297882080078</uncertainty>
        </time>
        <waveformID networkCode="UU" stationCode="FTT" locationCode="01" channelCode="ENZ"></waveformID>
        <onset>impulsive</onset>
        <phaseHint>P</phaseHint>
        <evaluationMode>manual</evaluationMode>
      </pick>
      <pick publicID="smi:local/f3f1813d-a63f-4de3-bea0-78db8792c5e6">
        <time>
          <value>2020-03-18T13:10:11.680000Z</value>
          <uncertainty>0.0</uncertainty>
        </time>
        <waveformID networkCode="UU" stationCode="ICF" locationCode="01" channelCode="ENN"></waveformID>
        <onset>impulsive</onset>
        <phaseHint>S</phaseHint>
        <evaluationMode>manual</evaluationMode>
      </pick>
      <pick publicID="smi:local/3241dd30-7348-4e4e-aa29-81e6bb8e30c3">
        <time>
          <value>2020-03-18T13:10:11.383284Z</value>
          <uncertainty>0.013187885284423828</uncertainty>
        </time>
        <waveformID networkCode="UU" stationCode="LKC" locationCode="01" channelCode="ENN"></waveformID>
        <onset>impulsive</onset>
        <phaseHint>S</phaseHint>
        <evaluationMode>manual</evaluationMode>
      </pick>
      <pick publicID="smi:local/ea006ccd-01d4-4184-b326-295b2ada7763">
        <time>
          <value>2020-03-18T13:10:09.863720Z</value>
          <uncertainty>0.00418400764465332</uncertainty>
        </time>
        <waveformID networkCode="UU" stationCode="LKC" locationCode="01" channelCode="ENZ"></waveformID>
        <onset>impulsive</onset>
        <phaseHint>P</phaseHint>
        <polarity>negative</polarity>
        <evaluationMode>manual</evaluationMode>
      </pick>
      <pick publicID="smi:local/eea3f608-414e-43d9-abbd-b5cf7ea1de18">
        <time>
          <value>2020-03-18T13:10:11.373266Z</value>
          <uncertainty>0.003110647201538086</uncertainty>
        </time>
        <waveformID networkCode="UU" stationCode="SAIU" locationCode="01" channelCode="ENZ"></waveformID>
        <phaseHint>P</phaseHint>
        <polarity>negative</polarity>
        <evaluationMode>manual</evaluationMode>
      </pick>
      <pick publicID="smi:local/3fb9c49c-da11-4ea3-b973-0f12f154ffce">
        <time>
          <value>2020-03-18T13:10:13.382351Z</value>
          <uncertainty>0.021282196044921875</uncertainty>
        </time>
        <waveformID networkCode="UU" stationCode="SAIU" locationCode="01" channelCode="ENN"></waveformID>
        <phaseHint>S</phaseHint>
        <evaluationMode>manual</evaluationMode>
      </pick>
      <amplitude publicID="smi:local/26713b08-509f-4e50-b038-cf395702e0a1">
        <genericAmplitude/>
        <type>S</type>
        <timeWindow>
          <reference>2020-03-18T13:10:12.051746Z</reference>
          <begin>0.0</begin>
          <end>0.253889799118042</end>
        </timeWindow>
        <pickID>smi:local/ac4f850d-7ede-4ec1-acdf-9797775f1241</pickID>
      </amplitude>
      <amplitude publicID="smi:local/fc995e67-8498-4b5c-8071-408ec7b3f0c9">
        <genericAmplitude/>
        <type>P</type>
        <timeWindow>
          <reference>2020-03-18T13:10:10.227576Z</reference>
          <begin>0.0</begin>
          <end>0.296506404876709</end>
        </timeWindow>
        <pickID>smi:local/d76fe420-1f73-4860-8e29-e6f4c49dbff5</pickID>
      </amplitude>
      <amplitude publicID="smi:local/68c4d66e-f60d-43f9-ad74-37644d9c0b96">
        <genericAmplitude/>
        <type>S</type>
        <timeWindow>
          <reference>2020-03-18T13:10:11.680000Z</reference>
          <begin>0.0</begin>
          <end>0.2434232234954834</end>
        </timeWindow>
        <pickID>smi:local/f3f1813d-a63f-4de3-bea0-78db8792c5e6</pickID>
      </amplitude>
      <amplitude publicID="smi:local/a8b9320e-b480-45ad-a642-f1b19b6fc421">
        <genericAmplitude/>
        <type>S</type>
        <timeWindow>
          <reference>2020-03-18T13:10:11.383284Z</reference>
          <begin>0.0</begin>
          <end>0.23173236846923828</end>
        </timeWindow>
        <pickID>smi:local/3241dd30-7348-4e4e-aa29-81e6bb8e30c3</pickID>
      </amplitude>
      <amplitude publicID="smi:local/1889b7c2-e7e1-4484-a324-76a4b41a7273">
        <genericAmplitude/>
        <type>P</type>
        <timeWindow>
          <reference>2020-03-18T13:10:09.863720Z</reference>
          <begin>0.0</begin>
          <end>0.11157727241516113</end>
        </timeWindow>
        <pickID>smi:local/ea006ccd-01d4-4184-b326-295b2ada7763</pickID>
      </amplitude>
      <amplitude publicID="smi:local/ef69d9ce-86bb-4db2-9d2f-cdd66070a135">
        <genericAmplitude/>
        <type>P</type>
        <timeWindow>
          <reference>2020-03-18T13:10:11.373266Z</reference>
          <begin>0.0</begin>
          <end>0.1608138084411621</end>
        </timeWindow>
        <pickID>smi:local/eea3f608-414e-43d9-abbd-b5cf7ea1de18</pickID>
      </amplitude>
      <amplitude publicID="smi:local/a0b7c867-0329-4dbf-ab30-41ff2002c55e">
        <genericAmplitude/>
        <type>S</type>
        <timeWindow>
          <reference>2020-03-18T13:10:13.382351Z</reference>
          <begin>0.0</begin>
          <end>0.3032715320587158</end>
        </timeWindow>
        <pickID>smi:local/3fb9c49c-da11-4ea3-b973-0f12f154ffce</pickID>
      </amplitude>
    </event>
    <event publicID="smi:local/0e4adc68-fc16-438e-bfd6-47f4fc0ba1b9">
      <preferredOriginID>smi:local/6bb3b45e-a65d-4e12-93ed-b7be356ecb9f</preferredOriginID>
      <description>
        <text>LR</text>
      </description>
      <origin publicID="smi:local/6bb3b45e-a65d-4e12-93ed-b7be356ecb9f">
        <time>
          <value>2020-03-18T13:10:16.960000Z</value>
        </time>
        <latitude>
          <value>40.7475</value>
        </latitude>
        <longitude>
          <value>112.08016666666667</value>
        </longitude>
        <depth>
          <value>6940.0</value>
        </depth>
      </origin>
      <pick publicID="smi:local/2bf2c645-811d-4839-a990-70be315559f2">
        <time>
          <value>2020-03-18T13:10:20.510583Z</value>
          <uncertainty>0.011716365814208984</uncertainty>
        </time>
        <waveformID networkCode="UU" stationCode="FTT" locationCode="01" channelCode="ENN"></waveformID>
        <onset>impulsive</onset>
        <phaseHint>S</phaseHint>
        <evaluationMode>manual</evaluationMode>
      </pick>
      <pick publicID="smi:local/a620776d-7de3-400c-a94f-b4a88a103f33">
        <time>
          <value>2020-03-18T13:10:18.911647Z</value>
          <uncertainty>0.0011017322540283203</uncertainty>
        </time>
        <waveformID networkCode="UU" stationCode="FTT" locationCode="01" channelCode="ENZ"></waveformID>
        <onset>impulsive</onset>
        <phaseHint>P</phaseHint>
        <polarity>negative</polarity>
        <evaluationMode>manual</evaluationMode>
      </pick>
      <pick publicID="smi:local/01cd23e2-238f-4c8c-a80e-6c0bf32d5f40">
        <time>
          <value>2020-03-18T13:10:20.418006Z</value>
          <uncertainty>0.02566671371459961</uncertainty>
        </time>
        <waveformID networkCode="UU" stationCode="ICF" locationCode="01" channelCode="ENN"></waveformID>
        <onset>impulsive</onset>
        <phaseHint>S</phaseHint>
        <evaluationMode>manual</evaluationMode>
      </pick>
      <pick publicID="smi:local/4a789ce1-c6a2-48a2-b1be-799d2503b96b">
        <time>
          <value>2020-03-18T13:10:19.060000Z</value>
          <uncertainty>0.0</uncertainty>
        </time>
        <waveformID networkCode="UU" stationCode="ICF" locationCode="01" channelCode="ENZ"></waveformID>
        <onset>impulsive</onset>
        <phaseHint>P</phaseHint>
      </pick>
      <pick publicID="smi:local/c0d19644-51fc-49f0-8490-45c5efa83d25">
        <time>
          <value>2020-03-18T13:10:18.566180Z</value>
          <uncertainty>0.03320813179016113</uncertainty>
        </time>
        <waveformID networkCode="UU" stationCode="LKC" locationCode="01" channelCode="ENZ"></waveformID>
        <onset>impulsive</onset>
        <phaseHint>P</phaseHint>
        <polarity>negative</polarity>
        <evaluationMode>manual</evaluationMode>
      </pick>
      <pick publicID="smi:local/3e4d45b6-d815-4276-b109-4b847521c3d0">
        <time>
          <value>2020-03-18T13:10:21.415608Z</value>
          <uncertainty>0.018224239349365234</uncertainty>
        </time>
        <waveformID networkCode="UU" stationCode="NOQ" locationCode="01" channelCode="HHN"></waveformID>
        <onset>impulsive</onset>
        <phaseHint>S</phaseHint>
        <polarity>negative</polarity>
        <evaluationMode>manual</evaluationMode>
      </pick>
      <pick publicID="smi:local/392401b3-ae0c-4bf9-bf30-8d8d9eec3033">
        <time>
          <value>2020-03-18T13:10:19.921207Z</value>
          <uncertainty>0.012314081192016602</uncertainty>
        </time>
        <waveformID networkCode="UU" stationCode="SAIU" locationCode="01" channelCode="ENZ"></waveformID>
        <phaseHint>P</phaseHint>
        <polarity>negative</polarity>
        <evaluationMode>manual</evaluationMode>
      </pick>
      <pick publicID="smi:local/218aeec6-31f7-4bd2-b71a-e30cbe2bca5e">
        <time>
          <value>2020-03-18T13:10:22.117121Z</value>
          <uncertainty>0.014938592910766602</uncertainty>
        </time>
        <waveformID networkCode="UU" stationCode="SAIU" locationCode="01" channelCode="ENN"></waveformID>
        <phaseHint>S</phaseHint>
        <evaluationMode>manual</evaluationMode>
      </pick>
      <pick publicID="smi:local/13ef6143-1f55-41ab-b9e8-b446a81b6025">
        <time>
          <value>2020-03-18T13:10:20.057026Z</value>
          <uncertainty>0.017495393753051758</uncertainty>
        </time>
        <waveformID networkCode="UU" stationCode="LKC" locationCode="01" channelCode="ENN"></waveformID>
        <phaseHint>S</phaseHint>
        <evaluationMode>manual</evaluationMode>
      </pick>
      <amplitude publicID="smi:local/72d96f11-608d-4d18-a97e-b8080b58372d">
        <genericAmplitude/>
        <type>S</type>
        <timeWindow>
          <reference>2020-03-18T13:10:20.510583Z</reference>
          <begin>0.0</begin>
          <end>0.22729969024658203</end>
        </timeWindow>
        <pickID>smi:local/2bf2c645-811d-4839-a990-70be315559f2</pickID>
      </amplitude>
      <amplitude publicID="smi:local/d50b557e-ad39-4e42-965d-3e0622ed4bb0">
        <genericAmplitude/>
        <type>P</type>
        <timeWindow>
          <reference>2020-03-18T13:10:18.911647Z</reference>
          <begin>0.0</begin>
          <end>0.19389653205871582</end>
        </timeWindow>
        <pickID>smi:local/a620776d-7de3-400c-a94f-b4a88a103f33</pickID>
      </amplitude>
      <amplitude publicID="smi:local/b25a3cf0-9b05-46f7-a423-b5b5d7ffcb59">
        <genericAmplitude/>
        <type>S</type>
        <timeWindow>
          <reference>2020-03-18T13:10:20.418006Z</reference>
          <begin>0.0</begin>
          <end>0.5133340358734131</end>
        </timeWindow>
        <pickID>smi:local/01cd23e2-238f-4c8c-a80e-6c0bf32d5f40</pickID>
      </amplitude>
      <amplitude publicID="smi:local/84ed24be-fe61-46eb-8448-b51e99f1ff4a">
        <genericAmplitude/>
        <type>P</type>
        <timeWindow>
          <reference>2020-03-18T13:10:18.566180Z</reference>
          <begin>0.0</begin>
          <end>0.17341971397399902</end>
        </timeWindow>
        <pickID>smi:local/c0d19644-51fc-49f0-8490-45c5efa83d25</pickID>
      </amplitude>
      <amplitude publicID="smi:local/80994421-e95c-47e6-85ec-0ff5827b3a7f">
        <genericAmplitude/>
        <type>S</type>
        <timeWindow>
          <reference>2020-03-18T13:10:21.415608Z</reference>
          <begin>0.0</begin>
          <end>0.2156534194946289</end>
        </timeWindow>
        <pickID>smi:local/3e4d45b6-d815-4276-b109-4b847521c3d0</pickID>
      </amplitude>
      <amplitude publicID="smi:local/bc64e4f6-fdb0-4d0c-b180-bebaaa46761a">
        <genericAmplitude/>
        <type>P</type>
        <timeWindow>
          <reference>2020-03-18T13:10:19.921207Z</reference>
          <begin>0.0</begin>
          <end>0.2154991626739502</end>
        </timeWindow>
        <pickID>smi:local/392401b3-ae0c-4bf9-bf30-8d8d9eec3033</pickID>
